{"type": "FeatureCollection", "features": [ {"type": "Feature", "properties": {"norad_id": 17070, "name": "POLAR BEAR", "group": "nnss", "lat": 4.637119692578305, "lon": 3.4203915669748906, "alt_km": 977.3306416031473, "timestamp": "2025-12-20T18:51:31.982815+00:00", "meta": {"OBJECT_NAME": "POLAR BEAR", "OBJECT_ID": "1986-088A", "EPOCH": "2025-12-20T12:53:27.637152", "MEAN_MOTION": 13.75252346, "ECCENTRICITY": 0.00412756, "INCLINATION": 89.617, "RA_OF_ASC_NODE": 183.4615, "ARG_OF_PERICENTER": 96.7897, "MEAN_ANOMALY": 287.644, "EPHEMERIS_TYPE": 0, "CLASSIFICATION_TYPE": "U", "NORAD_CAT_ID": 17070, "ELEMENT_SET_NO": 999, "REV_AT_EPOCH": 96086, "BSTAR": 8.7122137e-05, "MEAN_MOTION_DOT": 9.6e-07, "MEAN_MOTION_DDOT": 0}, "tle": {"line1": "1 17070U 86088A   25354.53712543  .00000096  00000+0  87122-4 0  9992", "line2": "2 17070  89.6170 183.4615 0041275  96.7897 287.6440 13.75252346960869"}}, "geometry": {"type": "Point", "coordinates": [3.4203915669748906, 4.637119692578305]}}, {"type": "Feature", "properties": {"norad_id": 18361, "name": "OSCAR 27", "group": "nnss", "lat": -84.34213618838724, "lon": 83.35338393115043, "alt_km": 1077.847943983401, "timestamp": "2025-12-20T18:51:31.982825+00:00", "meta": {"OBJECT_NAME": "OSCAR 27", "OBJECT_ID": "1987-080A", "EPOCH": "2025-12-20T12:08:20.550624", "MEAN_MOTION": 13.44908172, "ECCENTRICITY": 0.01035438, "INCLINATION": 90.374, "RA_OF_ASC_NODE": 79.5628, "ARG_OF_PERICENTER": 201.3956, "MEAN_ANOMALY": 158.2848, "EPHEMERIS_TYPE": 0, "CLASSIFICATION_TYPE": "U", "NORAD_CAT_ID": 18361, "ELEMENT_SET_NO": 999, "REV_AT_EPOCH": 87661, "BSTAR": 0.00014658613, "MEAN_MOTION_DOT": 9.7e-07, "MEAN_MOTION_DDOT": 0}, "tle": {"line1": "1 18361U 87080A   25354.50579341  .00000097  00000+0  14659-3 0  9998", "line2": "2 18361  90.3740  79.5628 0103543 201.3956 158.2848 13.44908172876616"}}, "geometry": {"type": "Point", "coordinates": [83.35338393115043, -84.34213618838724]}}, {"type": "Feature", "properties": {"norad_id": 18362, "name": "OSCAR 29", "group": "nnss", "lat": -85.62626087116152, "lon": 84.94604169654079, "alt_km": 1050.148137756375, "timestamp": "2025-12-20T18:51:31.982835+00:00", "meta": {"OBJECT_NAME": "OSCAR 29", "OBJECT_ID": "1987-080B", "EPOCH": "2025-12-20T12:11:35.668608", "MEAN_MOTION": 13.44449676, "ECCENTRICITY": 0.01043987, "INCLINATION": 90.3751, "RA_OF_ASC_NODE": 80.0224, "ARG_OF_PERICENTER": 224.6444, "MEAN_ANOMALY": 145.356, "EPHEMERIS_TYPE": 0, "CLASSIFICATION_TYPE": "U", "NORAD_CAT_ID": 18362, "ELEMENT_SET_NO": 999, "REV_AT_EPOCH": 87614, "BSTAR": 0.00012855093, "MEAN_MOTION_DOT": 8.5e-07, "MEAN_MOTION_DDOT": 0}, "tle": {"line1": "1 18362U 87080B   25354.50805172  .00000085  00000+0  12855-3 0  9996", "line2": "2 18362  90.3751  80.0224 0104398 224.6444 145.3560 13.44449676876142"}}, "geometry": {"type": "Point", "coordinates": [84.94604169654079, -85.62626087116152]}}, {"type": "Feature", "properties": {"norad_id": 19070, "name": "OSCAR 23", "group": "nnss", "lat": -71.52222491546837, "lon": 17.601303965248057, "alt_km": 1254.813417678537, "timestamp": "2025-12-20T18:51:31.982845+00:00", "meta": {"OBJECT_NAME": "OSCAR 23", "OBJECT_ID": "1988-033A", "EPOCH": "2025-12-20T14:23:51.322848", "MEAN_MOTION": 13.27788452, "ECCENTRICITY": 0.01901778, "INCLINATION": 90.3204, "RA_OF_ASC_NODE": 16.6361, "ARG_OF_PERICENTER": 158.1011, "MEAN_ANOMALY": 320.7202, "EPHEMERIS_TYPE": 0, "CLASSIFICATION_TYPE": "U", "NORAD_CAT_ID": 19070, "ELEMENT_SET_NO": 999, "REV_AT_EPOCH": 82357, "BSTAR": 0.00014595321, "MEAN_MOTION_DOT": 8.2e-07, "MEAN_MOTION_DDOT": 0}, "tle": {"line1": "1 19070U 88033A   25354.59989957  .00000082  00000+0  14595-3 0  9995", "line2": "2 19070  90.3204  16.6361 0190177 158.1011 320.7202 13.27788452823570"}}, "geometry": {"type": "Point", "coordinates": [17.601303965248057, -71.52222491546837]}}, {"type": "Feature", "properties": {"norad_id": 19071, "name": "OSCAR 32", "group": "nnss", "lat": 39.80691418640845, "lon": 16.506620359363826, "alt_km": 1184.7868701187135, "timestamp": "2025-12-20T18:51:31.982855+00:00", "meta": {"OBJECT_NAME": "OSCAR 32", "OBJECT_ID": "1988-033B", "EPOCH": "2025-12-20T12:14:25.704672", "MEAN_MOTION": 13.27955164, "ECCENTRICITY": 0.01889619, "INCLINATION": 90.321, "RA_OF_ASC_NODE": 16.7657, "ARG_OF_PERICENTER": 145.2603, "MEAN_ANOMALY": 19.1565, "EPHEMERIS_TYPE": 0, "CLASSIFICATION_TYPE": "U", "NORAD_CAT_ID": 19071, "ELEMENT_SET_NO": 999, "REV_AT_EPOCH": 82368, "BSTAR": 0.00012124992, "MEAN_MOTION_DOT": 7e-07, "MEAN_MOTION_DDOT": 0}, "tle": {"line1": "1 19071U 88033B   25354.51001973  .00000070  00000+0  12125-3 0  9995", "line2": "2 19071  90.3210  16.7657 0188961 145.2603  19.1565 13.27955164823688"}}, "geometry": {"type": "Point", "coordinates": [16.506620359363826, 39.80691418640845]}}, {"type": "Feature", "properties": {"norad_id": 19223, "name": "NOVA 2", "group": "nnss", "lat": 85.58357611706664, "lon": -101.9059222602412, "alt_km": 1169.8300740566774, "timestamp": "2025-12-20T18:51:31.982873+00:00", "meta": {"OBJECT_NAME": "NOVA 2", "OBJECT_ID": "1988-052A", "EPOCH": "2025-12-20T12:59:59.868096", "MEAN_MOTION": 13.22936616, "ECCENTRICITY": 0.00299291, "INCLINATION": 89.987, "RA_OF_ASC_NODE": 78.2628, "ARG_OF_PERICENTER": 355.3753, "MEAN_ANOMALY": 16.721, "EPHEMERIS_TYPE": 0, "CLASSIFICATION_TYPE": "U", "NORAD_CAT_ID": 19223, "ELEMENT_SET_NO": 999, "REV_AT_EPOCH": 81051, "BSTAR": 8.6250754e-05, "MEAN_MOTION_DOT": 4.5e-07, "MEAN_MOTION_DDOT": 0}, "tle": {"line1": "1 19223U 88052A   25354.54166514  .00000045  00000+0  86251-4 0  9995", "line2": "2 19223  89.9870  78.2628 0029929 355.3753  16.7210 13.22936616810516"}}, "geometry": {"type": "Point", "coordinates": [-101.9059222602412, 85.58357611706664]}}, {"type": "Feature", "properties": {"norad_id": 19419, "name": "OSCAR 25", "group": "nnss", "lat": 20.06707203330619, "lon": 20.258111820757193, "alt_km": 1165.059517663456, "timestamp": "2025-12-20T18:51:31.982895+00:00", "meta": {"OBJECT_NAME": "OSCAR 25", "OBJECT_ID": "1988-074A", "EPOCH": "2025-12-20T12:26:18.131424", "MEAN_MOTION": 13.42624739, "ECCENTRICITY": 0.00948697, "INCLINATION": 90.0339, "RA_OF_ASC_NODE": 20.2696, "ARG_OF_PERICENTER": 223.3113, "MEAN_ANOMALY": 304.1551, "EPHEMERIS_TYPE": 0, "CLASSIFICATION_TYPE": "U", "NORAD_CAT_ID": 19419, "ELEMENT_SET_NO": 999, "REV_AT_EPOCH": 82744, "BSTAR": 0.00013820624, "MEAN_MOTION_DOT": 8.9e-07, "MEAN_MOTION_DDOT": 0}, "tle": {"line1": "1 19419U 88074A   25354.51826541  .00000089  00000+0  13821-3 0  9996", "line2": "2 19419  90.0339  20.2696 0094869 223.3113 304.1551 13.42624739827441"}}, "geometry": {"type": "Point", "coordinates": [20.258111820757193, 20.06707203330619]}}, {"type": "Feature", "properties": {"norad_id": 19420, "name": "OSCAR 31", "group": "nnss", "lat": -83.18932474163557, "lon": -159.67492294704854, "alt_km": 1058.7800144504454, "timestamp": "2025-12-20T18:51:31.982907+00:00", "meta": {"OBJECT_NAME": "OSCAR 31", "OBJECT_ID": "1988-074B", "EPOCH": "2025-12-20T13:01:10.132032", "MEAN_MOTION": 13.42585981, "ECCENTRICITY": 0.00932372, "INCLINATION": 90.0354, "RA_OF_ASC_NODE": 20.6208, "ARG_OF_PERICENTER": 217.3864, "MEAN_ANOMALY": 309.7263, "EPHEMERIS_TYPE": 0, "CLASSIFICATION_TYPE": "U", "NORAD_CAT_ID": 19420, "ELEMENT_SET_NO": 999, "REV_AT_EPOCH": 82755, "BSTAR": 0.00014414434, "MEAN_MOTION_DOT": 9.2e-07, "MEAN_MOTION_DDOT": 0}, "tle": {"line1": "1 19420U 88074B   25354.54247838  .00000092  00000+0  14414-3 0  9990", "line2": "2 19420  90.0354  20.6208 0093237 217.3864 309.7263 13.42585981827555"}}, "geometry": {"type": "Point", "coordinates": [-159.67492294704854, -83.18932474163557]}}]}